NORAD_CAT_ID,OBJECT_NAME,OBJECT_TYPE,EPOCH,MEAN_MOTION,ECCENTRICITY,INCLINATION,RA_OF_ASC_NODE,ARG_OF_PERICENTER,MEAN_ANOMALY,BSTAR,MEAN_MOTION_DOT,MEAN_MOTION_DDOT,TLE_LINE0,TLE_LINE1,TLE_LINE2,SEMIMAJOR_AXIS,PERIOD,APOGEE,PERIGEE,DECAYED
54076.0,STARLINK-5201,PAYLOAD,2023-06-23 13:22:55,15.08834372,0.0001659,53.2176,108.5702,96.2181,263.9001,-2.0923e-05,-6.21e-06,0.0,0 STARLINK-5201,1 54076U 22136AB  23174.55758739 -.00000621  00000-0 -20923-4 0  9993,2 54076  53.2176 108.5702 0001659  96.2181 263.9001 15.08834372 37854,6917.898,95.438,540.91,538.615,0.0
54076.0,STARLINK-5201,PAYLOAD,2023-06-25 01:56:46,15.08851222,0.0001263,53.2164,101.7325,90.0439,270.0698,5.9922e-05,6.66e-06,0.0,0 STARLINK-5201,1 54076U 22136AB  23176.08109653  .00000666  00000-0  59922-4 0  9996,2 54076  53.2164 101.7325 0001263  90.0439 270.0698 15.08851222 38086,6917.846,95.437,540.585,538.837,0.0
54076.0,STARLINK-5201,PAYLOAD,2023-06-26 01:47:34,15.08844456,0.000121,53.2153,97.274,92.9326,267.1804,0.00012941,1.773e-05,0.0,0 STARLINK-5201,1 54076U 22136AB  23177.07470256  .00001773  00000-0  12941-3 0  9995,2 54076  53.2153  97.2740 0001210  92.9326 267.1804 15.08844456 38236,6917.867,95.437,540.569,538.895,0.0
54076.0,STARLINK-5201,PAYLOAD,2023-06-26 11:19:53,15.08839242,0.0001217,53.2158,95.4894,89.1039,271.0092,2.0458e-05,3.8e-07,0.0,0 STARLINK-5201,1 54076U 22136AB  23177.47214441  .00000038  00000-0  20458-4 0  9997,2 54076  53.2158  95.4894 0001217  89.1039 271.0092 15.08839242 38293,6917.883,95.438,540.59,538.906,0.0
54076.0,STARLINK-5201,PAYLOAD,2023-06-27 15:56:50,15.08835325,0.0001177,53.2163,90.1375,96.192,263.9206,0.00011916,1.609e-05,0.0,0 STARLINK-5201,1 54076U 22136AB  23178.66447271  .00001609  00000-0  11916-3 0  9991,2 54076  53.2163  90.1375 0001177  96.1920 263.9206 15.08835325 38472,6917.895,95.438,540.574,538.945,0.0
54076.0,STARLINK-5201,PAYLOAD,2023-06-28 03:04:31,15.08849027,0.0001195,53.2158,88.0561,96.1034,264.0094,0.00023422,3.443e-05,0.0,0 STARLINK-5201,1 54076U 22136AB  23179.12814595  .00003443  00000-0  23422-3 0  9993,2 54076  53.2158  88.0561 0001195  96.1034 264.0094 15.08849027 38544,6917.853,95.437,540.544,538.891,0.0
54076.0,STARLINK-5201,PAYLOAD,2023-06-29 02:55:19,15.08842333,0.0001182,53.2161,83.5948,82.8503,277.2624,0.00019076,2.75e-05,0.0,0 STARLINK-5201,1 54076U 22136AB  23180.12175236  .00002750  00000-0  19076-3 0  9997,2 54076  53.2161  83.5948 0001182  82.8503 277.2624 15.08842333 38690,6917.873,95.437,540.556,538.921,0.0
54076.0,STARLINK-5201,PAYLOAD,2023-06-30 10:43:01,15.08844599,8.73e-05,53.2163,77.6479,83.7366,276.3726,0.00016184,2.289e-05,0.0,0 STARLINK-5201,1 54076U 22136AB  23181.44654929  .00002289  00000-0  16184-3 0  9998,2 54076  53.2163  77.6479 0000873  83.7366 276.3726 15.08844599 38899,6917.866,95.437,540.335,539.127,0.0
54076.0,STARLINK-5201,PAYLOAD,2023-06-30 23:26:07,15.08838958,0.000109,53.216,75.2679,87.4201,272.6916,5.5567e-05,5.97e-06,0.0,0 STARLINK-5201,1 54076U 22136AB  23181.97647437  .00000597  00000-0  55567-4 0  9991,2 54076  53.2160  75.2679 0001090  87.4201 272.6916 15.08838958 38974,6917.884,95.438,540.503,538.995,0.0
54076.0,STARLINK-5201,PAYLOAD,2023-07-02 02:27:40,15.0884361,9.95e-05,53.2168,70.2123,91.5368,268.5738,4.3147e-05,3.99e-06,0.0,0 STARLINK-5201,1 54076U 22136AB  23183.10255263  .00000399  00000-0  43147-4 0  9991,2 54076  53.2168  70.2123 0000995  91.5368 268.5738 15.08843610 39141,6917.869,95.437,540.423,539.046,0.0
54076.0,STARLINK-5201,PAYLOAD,2023-07-03 16:36:56,15.08833037,0.0001021,53.2168,63.0768,93.5211,266.5898,-6.381e-05,-1.303e-05,0.0,0 STARLINK-5201,1 54076U 22136AB  23184.69231820 -.00001303  00000-0 -63810-4 0  9996,2 54076  53.2168  63.0768 0001021  93.5211 266.5898 15.08833037 39389,6917.902,95.438,540.473,539.06,0.0
54076.0,STARLINK-5201,PAYLOAD,2023-07-04 00:33:51,15.08838939,0.0001127,53.2183,61.5922,98.7103,261.4017,4.1687e-05,3.76e-06,0.0,0 STARLINK-5201,1 54076U 22136AB  23185.02351780  .00000376  00000-0  41687-4 0  9997,2 54076  53.2183  61.5922 0001127  98.7103 261.4017 15.08838939 39434,6917.884,95.438,540.528,538.969,0.0
54076.0,STARLINK-5201,PAYLOAD,2023-07-05 02:00:01,15.08846105,0.0001057,53.2179,56.8336,98.0625,262.0488,9.1973e-05,1.176e-05,0.0,0 STARLINK-5201,1 54076U 22136AB  23186.08335306  .00001176  00000-0  91973-4 0  9992,2 54076  53.2179  56.8336 0001057  98.0625 262.0488 15.08846105 39599,6917.862,95.437,540.458,538.996,0.0
54076.0,STARLINK-5201,PAYLOAD,2023-07-05 22:40:03,15.08835897,0.0001109,53.2176,52.9674,96.484,263.6278,6.2072e-05,7e-06,0.0,0 STARLINK-5201,1 54076U 22136AB  23186.94448257  .00000700  00000-0  62072-4 0  9997,2 54076  53.2176  52.9674 0001109  96.4840 263.6278 15.08835897 39722,6917.893,95.438,540.525,538.991,0.0
54076.0,STARLINK-5201,PAYLOAD,2023-07-07 00:06:12,15.0884985,0.0001076,53.2176,48.2088,86.919,273.1925,9.839e-05,1.279e-05,0.0,0 STARLINK-5201,1 54076U 22136AB  23188.00431385  .00001279  00000-0  98390-4 0  9994,2 54076  53.2176  48.2088 0001076  86.9190 273.1925 15.08849850 39880,6917.85,95.437,540.46,538.971,0.0
54076.0,STARLINK-5201,PAYLOAD,2023-07-07 22:21:37,15.08842623,0.0001061,53.2172,44.0446,92.3787,267.7327,6.4144e-05,7.33e-06,0.0,0 STARLINK-5201,1 54076U 22136AB  23188.93167996  .00000733  00000-0  64144-4 0  9994,2 54076  53.2172  44.0446 0001061  92.3787 267.7327 15.08842623 40029,6917.872,95.437,540.471,539.003,0.0
54076.0,STARLINK-5201,PAYLOAD,2023-07-08 07:53:56,15.08829323,0.0001113,53.2172,42.2604,90.8492,269.2627,0.00025456,3.765e-05,0.0,0 STARLINK-5201,1 54076U 22136AB  23189.32912544  .00003765  00000-0  25456-3 0  9995,2 54076  53.2172  42.2604 0001113  90.8492 269.2627 15.08829323 40087,6917.913,95.438,540.548,539.008,0.0
54076.0,STARLINK-5201,PAYLOAD,2023-07-08 20:37:01,15.08842624,0.0001097,53.2171,39.8816,91.488,268.6238,4.3553e-05,4.05e-06,0.0,0 STARLINK-5201,1 54076U 22136AB  23189.85904031  .00000405  00000-0  43553-4 0  9992,2 54076  53.2171  39.8816 0001097  91.4880 268.6238 15.08842624 40161,6917.872,95.437,540.496,538.978,0.0
54076.0,STARLINK-5201,PAYLOAD,2023-07-09 18:52:25,15.0883802,0.000112,53.2176,35.717,97.4072,262.7048,3.3259e-05,2.42e-06,0.0,0 STARLINK-5201,1 54076U 22136AB  23190.78640365  .00000242  00000-0  33259-4 0  9994,2 54076  53.2176  35.7170 0001120  97.4072 262.7048 15.08838020 40305,6917.886,95.438,540.526,538.977,0.0
54076.0,STARLINK-5201,PAYLOAD,2023-07-10 23:29:21,15.08851575,0.0001039,53.2176,30.3656,101.8288,258.2821,-3.6924e-06,-3.47e-06,0.0,0 STARLINK-5201,1 54076U 22136AB  23191.97871629 -.00000347  00000-0 -36924-5 0  9996,2 54076  53.2176  30.3656 0001039 101.8288 258.2821 15.08851575 40481,6917.845,95.437,540.429,538.991,0.0
54076.0,STARLINK-5201,PAYLOAD,2023-07-11 05:50:54,15.08821969,7.93e-05,53.2169,29.1762,98.0608,262.0475,0.00030962,4.641e-05,0.0,0 STARLINK-5201,1 54076U 22136AB  23192.24368818  .00004641  00000-0  30962-3 0  9991,2 54076  53.2169  29.1762 0000793  98.0608 262.0475 15.08821969 40523,6917.936,95.439,540.349,539.252,0.0
54076.0,STARLINK-5201,PAYLOAD,2023-07-11 20:09:22,15.08836485,0.0001008,53.2174,26.5,88.2817,271.829,5.8213e-06,-1.95e-06,0.0,0 STARLINK-5201,1 54076U 22136AB  23192.83984762 -.00000195  00000-0  58213-5 0  9990,2 54076  53.2174  26.5000 0001008  88.2817 271.8290 15.08836485 40610,6917.891,95.438,540.453,539.059,0.0
54076.0,STARLINK-5201,PAYLOAD,2023-07-13 16:40:10,15.0883451,0.0001061,53.2179,18.1754,89.2862,270.8252,5.239e-05,5.46e-06,0.0,0 STARLINK-5201,1 54076U 22136AB  23194.69457140  .00000546  00000-0  52390-4 0  9999,2 54076  53.2179  18.1754 0001061  89.2862 270.8252 15.08834510 40892,6917.897,95.438,540.496,539.028,0.0
54076.0,STARLINK-5201,PAYLOAD,2023-07-14 18:06:20,15.08842683,0.0001026,53.2177,13.4171,81.6896,278.4212,0.00010886,1.445e-05,0.0,0 STARLINK-5201,1 54076U 22136AB  23195.75440713  .00001445  00000-0  10886-3 0  9997,2 54076  53.2177  13.4171 0001026  81.6896 278.4212 15.08842683 41054,6917.872,95.437,540.447,539.027,0.0
54076.0,STARLINK-5201,PAYLOAD,2023-07-15 17:57:08,15.08835501,0.0001135,53.218,8.9561,86.5913,273.5209,4.2603e-05,3.9e-06,0.0,0 STARLINK-5201,1 54076U 22136AB  23196.74801424  .00000390  00000-0  42603-4 0  9998,2 54076  53.2180   8.9561 0001135  86.5913 273.5209 15.08835501 41205,6917.894,95.438,540.544,538.974,0.0
54076.0,STARLINK-5201,PAYLOAD,2023-07-15 21:07:54,15.0884288,0.0001058,53.2173,8.3611,91.6386,268.4728,3.5305e-05,2.74e-06,0.0,0 STARLINK-5201,1 54076U 22136AB  23196.88048905  .00000274  00000-0  35305-4 0  9992,2 54076  53.2173   8.3611 0001058  91.6386 268.4728 15.08842880 41221,6917.872,95.437,540.468,539.005,0.0
54076.0,STARLINK-5201,PAYLOAD,2023-07-16 17:47:55,15.08836273,8.9e-05,53.218,4.4939,93.4434,266.666,0.00013684,1.891e-05,0.0,0 STARLINK-5201,1 54076U 22136AB  23197.74161138  .00001891  00000-0  13684-3 0  9993,2 54076  53.2180   4.4939 0000890  93.4434 266.6660 15.08836273 41354,6917.892,95.438,540.372,539.141,0.0
54076.0,STARLINK-5201,PAYLOAD,2023-07-17 19:14:04,15.08850191,0.0001089,53.2177,359.7392,79.1969,280.9145,9.8477e-05,1.28e-05,0.0,0 STARLINK-5201,1 54076U 22136AB  23198.80144512  .00001280  00000-0  98477-4 0  9994,2 54076  53.2177 359.7392 0001089  79.1969 280.9145 15.08850191 41514,6917.849,95.437,540.468,538.961,0.0
54076.0,STARLINK-5201,PAYLOAD,2023-07-18 14:18:43,15.08839231,0.0001178,53.2185,356.1689,85.7097,274.403,3.6253e-05,2.89e-06,0.0,0 STARLINK-5201,1 54076U 22136AB  23199.59633287  .00000289  00000-0  36253-4 0  9995,2 54076  53.2185 356.1689 0001178  85.7097 274.4030 15.08839231 41633,6917.883,95.438,540.563,538.933,0.0
54076.0,STARLINK-5201,PAYLOAD,2023-07-18 19:04:51,15.08849085,0.0001184,53.2186,355.2755,79.2649,280.8477,9.1367e-05,1.167e-05,0.0,0 STARLINK-5201,1 54076U 22136AB  23199.79504475  .00001167  00000-0  91367-4 0  9996,2 54076  53.2186 355.2755 0001184  79.2649 280.8477 15.08849085 41663,6917.853,95.437,540.537,538.899,0.0
